GLOBALSTAR M068 [-]     
1 32266U 07048D   23243.24808696 -.00000062  00000+0  23504-3 0  9990
2 32266  51.9879 141.6735 0001133  98.0574  54.9017 12.62765270734680
GLOBALSTAR M079 [+]     
1 37188U 10054A   23243.70451397 -.00000078  00000+0  14595-3 0  9999
2 37188  52.0065 335.1838 0000446 101.5105  17.3831 12.62267261593673
GLOBALSTAR M074 [+]     
1 37189U 10054B   23243.23446642 -.00000073  00000+0  17060-3 0  9990
2 37189  52.0038 336.0389 0000666 103.9542 277.9269 12.62269240594220
GLOBALSTAR M076 [+]     
1 37190U 10054C   23243.34451823 -.00000083  00000+0  11846-3 0  9998
2 37190  52.0049 335.8129 0000690  52.7295 350.7706 12.62260423593955
GLOBALSTAR M077 [+]     
1 37191U 10054D   23243.51117814 -.00000091  00000+0  72490-4 0  9999
2 37191  52.0076 291.9760 0000493 107.7876  31.9568 12.62260383594349
GLOBALSTAR M075 [+]     
1 37192U 10054E   23243.53298521 -.00000097  00000+0  37831-4 0  9993
2 37192  51.9969  17.8594 0000560  88.5756  31.0087 12.62260652593207
GLOBALSTAR M073 [+]     
1 37193U 10054F   23244.06270354 -.00000072  00000+0  17676-3 0  9994
2 37193  52.0057 289.5705 0000400 109.6867 257.8396 12.62267051595147
GLOBALSTAR M083 [+]     
1 37739U 11033A   23243.39378562 -.00000106  00000+0 -12824-4 0  9993
2 37739  51.9839 241.2308 0000250 147.3965 359.9670 12.62268664564038
GLOBALSTAR M088 [+]     
1 37740U 11033B   23244.05033983 -.00000075  00000+0  15927-3 0  9994
2 37740  51.9727 145.2741 0000323  44.3420 327.6436 12.62265060559957
GLOBALSTAR M091 [+]     
1 37741U 11033C   23243.06476149 -.00000077  00000+0  14916-3 0  9999
2 37741  51.9989 110.6580 0000388  64.0200  86.5752 12.62265903560322
GLOBALSTAR M085 [+]     
1 37742U 11033D   23244.00762867 -.00000096  00000+0  44624-4 0  9991
2 37742  51.9871  59.4032 0000581  89.7941  88.3099 12.62266685561442
GLOBALSTAR M081 [+]     
1 37743U 11033E   23243.70654347 -.00000095  00000+0  48652-4 0  9995
2 37743  51.9960  62.7038 0000531  64.8293  63.9475 12.62270615561067
GLOBALSTAR M089 [+]     
1 37744U 11033F   23244.15170983 -.00000108  00000+0 -22641-4 0  9991
2 37744  51.9953  15.7001 0000847  78.8716  93.5471 12.62266293562213
GLOBALSTAR M084 [+]     
1 38040U 11080A   23244.05674639 -.00000103  00000+0  59637-5 0  9999
2 38040  51.9984 242.9323 0000477  68.3012 331.8199 12.62265341540214
GLOBALSTAR M080 [+]     
1 38041U 11080B   23243.50503245 -.00000104  00000+0 -31187-5 0  9995
2 38041  52.0039 245.9875 0000503  44.6340 127.7375 12.62264026539983
GLOBALSTAR M082 [+]     
1 38042U 11080C   23243.34888198 -.00000124  00000+0 -11222-3 0  9999
2 38042  52.0059 201.8386 0000447 163.9298 318.4115 12.62270213540672
GLOBALSTAR M092 [+]     
1 38043U 11080D   23244.09146924 -.00000076  00000+0  15647-3 0  9997
2 38043  52.0077 289.9226 0000725  92.7163 285.8976 12.62272011539434
GLOBALSTAR M090 [+]     
1 38044U 11080E   23243.30230021 -.00000118  00000+0 -77651-4 0  9995
2 38044  51.9869 196.6345 0000126  73.4069  77.1645 12.62267151540788
GLOBALSTAR M086 [+]     
1 38045U 11080F   23243.93811683 -.00000115  00000+0 -59909-4 0  9997
2 38045  51.9881 195.1970 0001016 330.2317  71.7957 12.62269805540818
GLOBALSTAR M097 [+]     
1 39072U 13005A   23244.03482514 -.00000074  00000+0  16765-3 0  9991
2 39072  52.0039 108.7868 0000390  68.7677 291.3231 12.62270394488156
GLOBALSTAR M093 [+]     
1 39073U 13005B   23244.00819471 -.00000076  00000+0  15734-3 0  9992
2 39073  51.9804 103.2179 0000233  43.7467 316.3418 12.62266335488140
GLOBALSTAR M094 [+]     
1 39074U 13005C   23243.84988469 -.00000107  00000+0 -19320-4 0  9990
2 39074  51.9983  17.4268 0000560  93.2612 266.8319 12.62266987489614
GLOBALSTAR M096 [+]     
1 39075U 13005D   23243.70456175 -.00000097  00000+0  35707-4 0  9994
2 39075  52.0073  65.8699 0000461  82.3765 277.7154 12.62268193488517
GLOBALSTAR M078 [+]     
1 39076U 13005E   23243.20280895 -.00000001  00000+0  57289-3 0  9997
2 39076  51.9865 152.7988 0000980 138.0542 222.0399 12.62271416487076
GLOBALSTAR M095 [+]     
1 39077U 13005F   23244.10074488 -.00000075  00000+0  15872-3 0  9990
2 39077  51.9792 147.5900 0000353 147.8032 212.2856 12.62268272487400
GLOBALSTAR M087 [+]     
1 52888U 22064A   23243.13560929 -.00000088  00000+0  76306-4 0  9996
2 52888  51.9750 143.2462 0009585 349.8008  10.2697 13.37551520 58573
